[{"OBJECT_NAME":"SATELIOT_2","OBJECT_ID":"2024-149BU","EPOCH":"2026-03-09T17:03:51.267456","MEAN_MOTION":14.95943652,"ECCENTRICITY":0.00018846,"INCLINATION":97.6894,"RA_OF_ASC_NODE":145.4857,"ARG_OF_PERICENTER":85.8882,"MEAN_ANOMALY":274.2555,"EPHEMERIS_TYPE":0,"CLASSIFICATION_TYPE":"U","NORAD_CAT_ID":60534,"ELEMENT_SET_NO":999,"REV_AT_EPOCH":8509,"BSTAR":0.00020754308,"MEAN_MOTION_DOT":2.267e-5,"MEAN_MOTION_DDOT":0},{"OBJECT_NAME":"SKYCRAFT-4A","OBJECT_ID":"2025-154J","EPOCH":"2026-03-09T16:59:51.135072","MEAN_MOTION":14.95268947,"ECCENTRICITY":0.00048742,"INCLINATION":97.6797,"RA_OF_ASC_NODE":135.107,"ARG_OF_PERICENTER":223.0221,"MEAN_ANOMALY":137.062,"EPHEMERIS_TYPE":0,"CLASSIFICATION_TYPE":"U","NORAD_CAT_ID":64897,"ELEMENT_SET_NO":999,"REV_AT_EPOCH":3251,"BSTAR":0.00074813792,"MEAN_MOTION_DOT":8.187e-5,"MEAN_MOTION_DDOT":0}]
